[{"OBJECT_NAME":"LEMUR-2-ARIANNA","OBJECT_ID":"2025-009CU","EPOCH":"2026-03-29T04:56:39.442848","MEAN_MOTION":15.01222403,"ECCENTRICITY":0.0004543,"INCLINATION":97.6942,"RA_OF_ASC_NODE":170.3314,"ARG_OF_PERICENTER":112.2976,"MEAN_ANOMALY":247.873,"EPHEMERIS_TYPE":0,"CLASSIFICATION_TYPE":"U","NORAD_CAT_ID":62699,"ELEMENT_SET_NO":999,"REV_AT_EPOCH":6555,"BSTAR":0.00092327,"MEAN_MOTION_DOT":0.0001181,"MEAN_MOTION_DDOT":0},{"OBJECT_NAME":"LEMUR-2-ALISIA","OBJECT_ID":"2025-009DB","EPOCH":"2026-03-29T04:47:16.600416","MEAN_MOTION":15.01480273,"ECCENTRICITY":0.0006074,"INCLINATION":97.6963,"RA_OF_ASC_NODE":170.9956,"ARG_OF_PERICENTER":119.1793,"MEAN_ANOMALY":241.0039,"EPHEMERIS_TYPE":0,"CLASSIFICATION_TYPE":"U","NORAD_CAT_ID":62706,"ELEMENT_SET_NO":999,"REV_AT_EPOCH":8815,"BSTAR":0.00092185,"MEAN_MOTION_DOT":0.00011874,"MEAN_MOTION_DDOT":0},{"OBJECT_NAME":"LEMUR-2-ROUNDTRIPPER","OBJECT_ID":"2025-009DG","EPOCH":"2026-03-29T05:03:39.989664","MEAN_MOTION":15.02451717,"ECCENTRICITY":0.0005748,"INCLINATION":97.7273,"RA_OF_ASC_NODE":171.0913,"ARG_OF_PERICENTER":72.3978,"MEAN_ANOMALY":287.7874,"EPHEMERIS_TYPE":0,"CLASSIFICATION_TYPE":"U","NORAD_CAT_ID":62711,"ELEMENT_SET_NO":999,"REV_AT_EPOCH":6561,"BSTAR":0.0010395,"MEAN_MOTION_DOT":0.00013747,"MEAN_MOTION_DDOT":0},{"OBJECT_NAME":"LEMUR-2-MYNAMEISJEFF","OBJECT_ID":"2025-009DH","EPOCH":"2026-03-29T05:01:27.163488","MEAN_MOTION":15.02462969,"ECCENTRICITY":0.0005133,"INCLINATION":97.7313,"RA_OF_ASC_NODE":171.4233,"ARG_OF_PERICENTER":96.9605,"MEAN_ANOMALY":263.2204,"EPHEMERIS_TYPE":0,"CLASSIFICATION_TYPE":"U","NORAD_CAT_ID":62712,"ELEMENT_SET_NO":999,"REV_AT_EPOCH":6561,"BSTAR":0.001002,"MEAN_MOTION_DOT":0.00013251,"MEAN_MOTION_DDOT":0},{"OBJECT_NAME":"LEMUR-2-LEIA-PHILIP","OBJECT_ID":"2025-052AN","EPOCH":"2026-03-29T04:52:17.135904","MEAN_MOTION":14.96884327,"ECCENTRICITY":0.0005016,"INCLINATION":97.6935,"RA_OF_ASC_NODE":341.4787,"ARG_OF_PERICENTER":119.455,"MEAN_ANOMALY":240.7173,"EPHEMERIS_TYPE":0,"CLASSIFICATION_TYPE":"U","NORAD_CAT_ID":63246,"ELEMENT_SET_NO":999,"REV_AT_EPOCH":5670,"BSTAR":0.00064948,"MEAN_MOTION_DOT":7.4e-5,"MEAN_MOTION_DDOT":0},{"OBJECT_NAME":"LEMUR-2-LIA-MARTIN","OBJECT_ID":"2025-052AQ","EPOCH":"2026-03-29T03:43:40.715904","MEAN_MOTION":14.97037632,"ECCENTRICITY":0.0004326,"INCLINATION":97.6981,"RA_OF_ASC_NODE":341.8143,"ARG_OF_PERICENTER":92.7802,"MEAN_ANOMALY":267.3915,"EPHEMERIS_TYPE":0,"CLASSIFICATION_TYPE":"U","NORAD_CAT_ID":63248,"ELEMENT_SET_NO":999,"REV_AT_EPOCH":5670,"BSTAR":0.00065569,"MEAN_MOTION_DOT":7.5e-5,"MEAN_MOTION_DDOT":0},{"OBJECT_NAME":"LEMUR-2-DELOITTE-1","OBJECT_ID":"2025-052BB","EPOCH":"2026-03-28T15:45:41.764032","MEAN_MOTION":14.96977014,"ECCENTRICITY":0.0002776,"INCLINATION":97.7019,"RA_OF_ASC_NODE":341.6412,"ARG_OF_PERICENTER":60.0868,"MEAN_ANOMALY":300.0629,"EPHEMERIS_TYPE":0,"CLASSIFICATION_TYPE":"U","NORAD_CAT_ID":63259,"ELEMENT_SET_NO":999,"REV_AT_EPOCH":5664,"BSTAR":0.00049936,"MEAN_MOTION_DOT":5.687e-5,"MEAN_MOTION_DDOT":0},{"OBJECT_NAME":"LEMUR-2-EMERSONROSE","OBJECT_ID":"2025-052BD","EPOCH":"2026-03-29T04:17:21.620544","MEAN_MOTION":14.98453287,"ECCENTRICITY":0.000139,"INCLINATION":97.6986,"RA_OF_ASC_NODE":342.551,"ARG_OF_PERICENTER":53.5307,"MEAN_ANOMALY":306.6043,"EPHEMERIS_TYPE":0,"CLASSIFICATION_TYPE":"U","NORAD_CAT_ID":63261,"ELEMENT_SET_NO":999,"REV_AT_EPOCH":5675,"BSTAR":0.00057571,"MEAN_MOTION_DOT":6.822e-5,"MEAN_MOTION_DDOT":0},{"OBJECT_NAME":"LEMUR-2-MARACHE-FRAN","OBJECT_ID":"2025-052BE","EPOCH":"2026-03-29T04:48:02.237760","MEAN_MOTION":14.99194893,"ECCENTRICITY":0.0001681,"INCLINATION":97.7013,"RA_OF_ASC_NODE":342.7884,"ARG_OF_PERICENTER":18.9447,"MEAN_ANOMALY":341.1838,"EPHEMERIS_TYPE":0,"CLASSIFICATION_TYPE":"U","NORAD_CAT_ID":63262,"ELEMENT_SET_NO":999,"REV_AT_EPOCH":5677,"BSTAR":0.00075712,"MEAN_MOTION_DOT":9.168e-5,"MEAN_MOTION_DDOT":0},{"OBJECT_NAME":"LEMUR-2-THEFALCONER","OBJECT_ID":"2025-052BG","EPOCH":"2026-03-29T04:57:38.168928","MEAN_MOTION":14.96745531,"ECCENTRICITY":4.27e-5,"INCLINATION":97.6961,"RA_OF_ASC_NODE":341.8887,"ARG_OF_PERICENTER":307.4472,"MEAN_ANOMALY":52.6711,"EPHEMERIS_TYPE":0,"CLASSIFICATION_TYPE":"U","NORAD_CAT_ID":63264,"ELEMENT_SET_NO":999,"REV_AT_EPOCH":5672,"BSTAR":0.00060393,"MEAN_MOTION_DOT":6.85e-5,"MEAN_MOTION_DDOT":0},{"OBJECT_NAME":"LEMUR-2-UNTITLED-SC","OBJECT_ID":"2025-061A","EPOCH":"2026-03-28T21:01:06.585888","MEAN_MOTION":15.12868499,"ECCENTRICITY":0.00189463,"INCLINATION":97.5574,"RA_OF_ASC_NODE":63.8896,"ARG_OF_PERICENTER":176.6233,"MEAN_ANOMALY":183.5129,"EPHEMERIS_TYPE":0,"CLASSIFICATION_TYPE":"U","NORAD_CAT_ID":63351,"ELEMENT_SET_NO":999,"REV_AT_EPOCH":5544,"BSTAR":0.00030307436,"MEAN_MOTION_DOT":5.287e-5,"MEAN_MOTION_DDOT":0},{"OBJECT_NAME":"LEMUR-2-ESPERANZA","OBJECT_ID":"2025-061B","EPOCH":"2026-03-29T04:31:10.803072","MEAN_MOTION":15.12951966,"ECCENTRICITY":0.0018603,"INCLINATION":97.5585,"RA_OF_ASC_NODE":64.2746,"ARG_OF_PERICENTER":174.5868,"MEAN_ANOMALY":185.5567,"EPHEMERIS_TYPE":0,"CLASSIFICATION_TYPE":"U","NORAD_CAT_ID":63352,"ELEMENT_SET_NO":999,"REV_AT_EPOCH":5549,"BSTAR":0.00031644,"MEAN_MOTION_DOT":5.536e-5,"MEAN_MOTION_DDOT":0},{"OBJECT_NAME":"LEMUR-2-KREMPEL-BRO2","OBJECT_ID":"2025-061C","EPOCH":"2026-03-28T21:46:32.414304","MEAN_MOTION":15.13372047,"ECCENTRICITY":0.0019729,"INCLINATION":97.563,"RA_OF_ASC_NODE":64.4275,"ARG_OF_PERICENTER":168.5686,"MEAN_ANOMALY":191.5997,"EPHEMERIS_TYPE":0,"CLASSIFICATION_TYPE":"U","NORAD_CAT_ID":63353,"ELEMENT_SET_NO":999,"REV_AT_EPOCH":5546,"BSTAR":0.00026136,"MEAN_MOTION_DOT":4.617e-5,"MEAN_MOTION_DDOT":0},{"OBJECT_NAME":"LEMUR-2-THERMORAPTOR","OBJECT_ID":"2025-061D","EPOCH":"2026-03-28T21:26:11.249664","MEAN_MOTION":15.13434714,"ECCENTRICITY":0.0019482,"INCLINATION":97.5635,"RA_OF_ASC_NODE":64.4746,"ARG_OF_PERICENTER":167.6661,"MEAN_ANOMALY":192.5051,"EPHEMERIS_TYPE":0,"CLASSIFICATION_TYPE":"U","NORAD_CAT_ID":63354,"ELEMENT_SET_NO":999,"REV_AT_EPOCH":5546,"BSTAR":0.00030187235,"MEAN_MOTION_DOT":5.352e-5,"MEAN_MOTION_DDOT":0},{"OBJECT_NAME":"LEMUR-2-NEUROSPICY","OBJECT_ID":"2025-061E","EPOCH":"2026-03-29T04:50:03.415488","MEAN_MOTION":15.13555587,"ECCENTRICITY":0.0017231,"INCLINATION":97.5565,"RA_OF_ASC_NODE":64.4692,"ARG_OF_PERICENTER":169.6287,"MEAN_ANOMALY":190.5303,"EPHEMERIS_TYPE":0,"CLASSIFICATION_TYPE":"U","NORAD_CAT_ID":63355,"ELEMENT_SET_NO":999,"REV_AT_EPOCH":5551,"BSTAR":0.00034623,"MEAN_MOTION_DOT":6.164e-5,"MEAN_MOTION_DDOT":0},{"OBJECT_NAME":"LEMUR-2-TILLINFINITY","OBJECT_ID":"2025-061F","EPOCH":"2026-03-29T04:50:11.287392","MEAN_MOTION":15.14134824,"ECCENTRICITY":0.0018812,"INCLINATION":97.5549,"RA_OF_ASC_NODE":64.7037,"ARG_OF_PERICENTER":158.4905,"MEAN_ANOMALY":201.7121,"EPHEMERIS_TYPE":0,"CLASSIFICATION_TYPE":"U","NORAD_CAT_ID":63356,"ELEMENT_SET_NO":999,"REV_AT_EPOCH":5553,"BSTAR":0.00034215,"MEAN_MOTION_DOT":6.195e-5,"MEAN_MOTION_DDOT":0}]
