LEMUR-2-ARIANNA         
1 62699U 25009CU  26088.20601207  .00011810  00000+0  92327-3 0  9996
2 62699  97.6942 170.3314 0004543 112.2976 247.8730 15.01222403 65556
LEMUR-2-ALISIA          
1 62706U 25009DB  26088.19949769  .00011874  00000+0  92185-3 0  9993
2 62706  97.6963 170.9956 0006074 119.1793 241.0039 15.01480273 88150
LEMUR-2-ROUNDTRIPPER    
1 62711U 25009DG  26088.21087951  .00013747  00000+0  10395-2 0  9991
2 62711  97.7273 171.0913 0005748  72.3978 287.7874 15.02451717 65610
LEMUR-2-MYNAMEISJEFF    
1 62712U 25009DH  26088.20934217  .00013251  00000+0  10020-2 0  9992
2 62712  97.7313 171.4233 0005133  96.9605 263.2204 15.02462969 65619
LEMUR-2-LEIA-PHILIP     
1 63246U 25052AN  26088.20297611  .00007400  00000+0  64948-3 0  9991
2 63246  97.6935 341.4787 0005016 119.4550 240.7173 14.96884327 56707
LEMUR-2-LIA-MARTIN      
1 63248U 25052AQ  26088.15533236  .00007500  00000+0  65569-3 0  9994
2 63248  97.6981 341.8143 0004326  92.7802 267.3915 14.97037632 56705
LEMUR-2-DELOITTE-1      
1 63259U 25052BB  26087.65673338  .00005687  00000+0  49936-3 0  9992
2 63259  97.7019 341.6412 0002776  60.0868 300.0629 14.96977014 56640
LEMUR-2-EMERSONROSE     
1 63261U 25052BD  26088.17872246  .00006822  00000+0  57571-3 0  9998
2 63261  97.6986 342.5510 0001390  53.5307 306.6043 14.98453287 56757
LEMUR-2-MARACHE-FRAN    
1 63262U 25052BE  26088.20002590  .00009168  00000+0  75712-3 0  9993
2 63262  97.7013 342.7884 0001681  18.9447 341.1838 14.99194893 56773
LEMUR-2-THEFALCONER     
1 63264U 25052BG  26088.20669177  .00006850  00000+0  60393-3 0  9999
2 63264  97.6961 341.8887 0000427 307.4472  52.6711 14.96745531 56727
LEMUR-2-UNTITLED-SC     
1 63351U 25061A   26087.87577067  .00005287  00000+0  30307-3 0  9999
2 63351  97.5574  63.8896 0018946 176.6233 183.5129 15.12868499 55443
LEMUR-2-ESPERANZA       
1 63352U 25061B   26088.18831948  .00005536  00000+0  31644-3 0  9998
2 63352  97.5585  64.2746 0018603 174.5868 185.5567 15.12951966 55491
LEMUR-2-KREMPEL-BRO2    
1 63353U 25061C   26087.90731961  .00004617  00000+0  26136-3 0  9991
2 63353  97.5630  64.4275 0019729 168.5686 191.5997 15.13372047 55462
LEMUR-2-THERMORAPTOR    
1 63354U 25061D   26087.89318576  .00005352  00000+0  30187-3 0  9991
2 63354  97.5635  64.4746 0019482 167.6661 192.5051 15.13434714 55462
LEMUR-2-NEUROSPICY      
1 63355U 25061E   26088.20142842  .00006164  00000+0  34623-3 0  9990
2 63355  97.5565  64.4692 0017231 169.6287 190.5303 15.13555587 55517
LEMUR-2-TILLINFINITY    
1 63356U 25061F   26088.20151953  .00006195  00000+0  34215-3 0  9995
2 63356  97.5549  64.7037 0018812 158.4905 201.7121 15.14134824 55538
